{
    "week": 295,
    "satellites": [
        {
            "Name": "BEIDOU-3 M28 (C50)",
            "Line1": "1 58654U 23207A   24337.64413448 -.00000017  00000+0  00000+0 0  9992",
            "Line2": "2 58654  55.2531  81.3288 0002137 245.8030 114.1665  1.86232009  6388",
            "SatelliteNumber": "58654",
            "Classification": "U",
            "LaunchYear": "23",
            "LaunchNumber": "207",
            "PieceOfLaunch": "A",
            "EpochYear": "24",
            "EpochDay": 337.64413448,
            "FirstDerivativeMeanMotion": -1.7e-07,
            "SecondDerivativeMeanMotion": "00000+0",
            "BSTAR": "00000+0",
            "SetNumber": "999",
            "Inclination": 55.2531,
            "RAAN": 81.3288,
            "Eccentricity": 0.0002137,
            "ArgumentOfPerigee": 245.803,
            "MeanAnomaly": 114.1665,
            "MeanMotion": 1.86232009,
            "RevolutionNumber": "638"
        },
        {
            "Name": "BEIDOU-3 M26 (C48)",
            "Line1": "1 58655U 23207B   24336.90652202 -.00000023  00000+0  00000+0 0  9991",
            "Line2": "2 58655  55.2546  81.3396 0003538 236.2654 123.6893  1.86231473  6356",
            "SatelliteNumber": "58655",
            "Classification": "U",
            "LaunchYear": "23",
            "LaunchNumber": "207",
            "PieceOfLaunch": "B",
            "EpochYear": "24",
            "EpochDay": 336.90652202,
            "FirstDerivativeMeanMotion": -2.3e-07,
            "SecondDerivativeMeanMotion": "00000+0",
            "BSTAR": "00000+0",
            "SetNumber": "999",
            "Inclination": 55.2546,
            "RAAN": 81.3396,
            "Eccentricity": 0.0003538,
            "ArgumentOfPerigee": 236.2654,
            "MeanAnomaly": 123.6893,
            "MeanMotion": 1.86231473,
            "RevolutionNumber": "635"
        }
    ]
}